TYVAK-0130              
1 48606U 21041BF  26068.48452211  .00008857  00000+0  35198-3 0  9997
2 48606  52.9967 128.6030 0008953 215.1647 144.8760 15.26049141265157
STARLINK-30567          
1 58067U 23158S   26068.21393728  .00001073  00000+0  48509-4 0  9992
2 58067  43.0022  30.0257 0000917 296.0738  64.0019 15.27587017133491
